{
  "type": "FeatureCollection",
  "features": [
    {
      "type": "Feature",
      "properties": {
        "norad_id": 44873,
        "name": "CSG-1",
        "group": "resource",
        "lat": 45.76659063855288,
        "lon": -5.677530059270616,
        "alt_km": 617.912902727503,
        "timestamp": "2025-12-10T18:56:59.719708+00:00",
        "meta_object_name": "CSG-1",
        "meta_object_id": "2019-092A",
        "meta_epoch": "2025-12-10T11:52:06.082176",
        "meta_mean_motion": 14.82159472,
        "meta_eccentricity": 0.0001447,
        "meta_inclination": 97.881,
        "meta_ra_of_asc_node": 165.8525,
        "meta_arg_of_pericenter": 84.7148,
        "meta_mean_anomaly": 275.423,
        "meta_ephemeris_type": 0,
        "meta_classification_type": "U",
        "meta_norad_cat_id": 44873,
        "meta_element_set_no": 999,
        "meta_rev_at_epoch": 32352,
        "meta_bstar": 0.00014065,
        "meta_mean_motion_dot": 1.068e-05,
        "meta_mean_motion_ddot": 0,
        "tle_line1": "1 44873U 19092A   25344.49451484  .00001068  00000+0  14065-3 0  9997",
        "tle_line2": "2 44873  97.8810 165.8525 0001447  84.7148 275.4230 14.82159472323522"
      },
      "geometry": {
        "type": "Point",
        "coordinates": [
          -5.677530059270616,
          45.76659063855288
        ]
      }
    },
    {
      "type": "Feature",
      "properties": {
        "norad_id": 46277,
        "name": "NEMO-HD",
        "group": "resource",
        "lat": -64.02156135550496,
        "lon": -151.17053622978872,
        "alt_km": 453.9661625911367,
        "timestamp": "2025-12-10T18:56:59.719718+00:00",
        "meta_object_name": "NEMO-HD",
        "meta_object_id": "2020-061F",
        "meta_epoch": "2025-12-10T10:05:37.449312",
        "meta_mean_motion": 15.40248296,
        "meta_eccentricity": 0.0002031,
        "meta_inclination": 97.221,
        "meta_ra_of_asc_node": 43.5477,
        "meta_arg_of_pericenter": 59.0087,
        "meta_mean_anomaly": 301.1359,
        "meta_ephemeris_type": 0,
        "meta_classification_type": "U",
        "meta_norad_cat_id": 46277,
        "meta_element_set_no": 999,
        "meta_rev_at_epoch": 29288,
        "meta_bstar": 0.00038069,
        "meta_mean_motion_dot": 0.00015244,
        "meta_mean_motion_ddot": 0,
        "tle_line1": "1 46277U 20061F   25344.42057233  .00015244  00000+0  38069-3 0  9993",
        "tle_line2": "2 46277  97.2210  43.5477 0002031  59.0087 301.1359 15.40248296292886"
      },
      "geometry": {
        "type": "Point",
        "coordinates": [
          -151.17053622978872,
          -64.02156135550496
        ]
      }
    },
    {
      "type": "Feature",
      "properties": {
        "norad_id": 46984,
        "name": "SENTINEL-6A",
        "group": "resource",
        "lat": 60.82395209817784,
        "lon": -66.42885720249299,
        "alt_km": 1336.6002898390025,
        "timestamp": "2025-12-10T18:56:59.719733+00:00",
        "meta_object_name": "SENTINEL-6A",
        "meta_object_id": "2020-086A",
        "meta_epoch": "2025-12-09T23:39:14.637312",
        "meta_mean_motion": 12.8093052,
        "meta_eccentricity": 0.00077304,
        "meta_inclination": 66.0391,
        "meta_ra_of_asc_node": 168.0287,
        "meta_arg_of_pericenter": 269.1798,
        "meta_mean_anomaly": 90.8331,
        "meta_ephemeris_type": 0,
        "meta_classification_type": "U",
        "meta_norad_cat_id": 46984,
        "meta_element_set_no": 999,
        "meta_rev_at_epoch": 23609,
        "meta_bstar": 6.617319e-05,
        "meta_mean_motion_dot": -4.6e-07,
        "meta_mean_motion_ddot": 0,
        "tle_line1": "1 46984U 20086A   25343.98558608 -.00000046  00000+0  66173-4 0  9990",
        "tle_line2": "2 46984  66.0391 168.0287 0007730 269.1798  90.8331 12.80930520236093"
      },
      "geometry": {
        "type": "Point",
        "coordinates": [
          -66.42885720249299,
          60.82395209817784
        ]
      }
    },
    {
      "type": "Feature",
      "properties": {
        "norad_id": 48079,
        "name": "GAOFEN-12 02",
        "group": "resource",
        "lat": 43.69839659417401,
        "lon": -28.903026555119048,
        "alt_km": 622.347022053832,
        "timestamp": "2025-12-10T18:56:59.719743+00:00",
        "meta_object_name": "GAOFEN-12 02",
        "meta_object_id": "2021-026A",
        "meta_epoch": "2025-12-10T12:15:47.998944",
        "meta_mean_motion": 14.80670966,
        "meta_eccentricity": 0.000349,
        "meta_inclination": 97.9851,
        "meta_ra_of_asc_node": 338.5282,
        "meta_arg_of_pericenter": 105.5278,
        "meta_mean_anomaly": 254.6319,
        "meta_ephemeris_type": 0,
        "meta_classification_type": "U",
        "meta_norad_cat_id": 48079,
        "meta_element_set_no": 999,
        "meta_rev_at_epoch": 25384,
        "meta_bstar": 0.00012143,
        "meta_mean_motion_dot": 8.8e-06,
        "meta_mean_motion_ddot": 0,
        "tle_line1": "1 48079U 21026A   25344.51097221  .00000880  00000+0  12143-3 0  9993",
        "tle_line2": "2 48079  97.9851 338.5282 0003490 105.5278 254.6319 14.80670966253843"
      },
      "geometry": {
        "type": "Point",
        "coordinates": [
          -28.903026555119048,
          43.69839659417401
        ]
      }
    },
    {
      "type": "Feature",
      "properties": {
        "norad_id": 48268,
        "name": "PLEIADES NEO 3",
        "group": "resource",
        "lat": 73.64135719985006,
        "lon": -94.5289180842007,
        "alt_km": 616.0562947804301,
        "timestamp": "2025-12-10T18:56:59.719756+00:00",
        "meta_object_name": "PLEIADES NEO 3",
        "meta_object_id": "2021-034A",
        "meta_epoch": "2025-12-10T15:14:21.199776",
        "meta_mean_motion": 14.81673059,
        "meta_eccentricity": 0.0001371,
        "meta_inclination": 97.895,
        "meta_ra_of_asc_node": 57.106,
        "meta_arg_of_pericenter": 94.9453,
        "meta_mean_anomaly": 265.1917,
        "meta_ephemeris_type": 0,
        "meta_classification_type": "U",
        "meta_norad_cat_id": 48268,
        "meta_element_set_no": 999,
        "meta_rev_at_epoch": 24973,
        "meta_bstar": 2.1076e-05,
        "meta_mean_motion_dot": 1.14e-06,
        "meta_mean_motion_ddot": 0,
        "tle_line1": "1 48268U 21034A   25344.63496759  .00000114  00000+0  21076-4 0  9990",
        "tle_line2": "2 48268  97.8950  57.1060 0001371  94.9453 265.1917 14.81673059249733"
      },
      "geometry": {
        "type": "Point",
        "coordinates": [
          -94.5289180842007,
          73.64135719985006
        ]
      }
    },
    {
      "type": "Feature",
      "properties": {
        "norad_id": 49070,
        "name": "PLEIADES NEO 4",
        "group": "resource",
        "lat": -73.60476550395319,
        "lon": 85.393389065403,
        "alt_km": 632.2388242812158,
        "timestamp": "2025-12-10T18:56:59.719766+00:00",
        "meta_object_name": "PLEIADES NEO 4",
        "meta_object_id": "2021-073E",
        "meta_epoch": "2025-12-09T14:07:00.443712",
        "meta_mean_motion": 14.81679595,
        "meta_eccentricity": 0.0001363,
        "meta_inclination": 97.8947,
        "meta_ra_of_asc_node": 56.0703,
        "meta_arg_of_pericenter": 89.0853,
        "meta_mean_anomaly": 271.0516,
        "meta_ephemeris_type": 0,
        "meta_classification_type": "U",
        "meta_norad_cat_id": 49070,
        "meta_element_set_no": 999,
        "meta_rev_at_epoch": 23329,
        "meta_bstar": 7.8728e-05,
        "meta_mean_motion_dot": 5.68e-06,
        "meta_mean_motion_ddot": 0,
        "tle_line1": "1 49070U 21073E   25343.58819958  .00000568  00000+0  78728-4 0  9997",
        "tle_line2": "2 49070  97.8947  56.0703 0001363  89.0853 271.0516 14.81679595233299"
      },
      "geometry": {
        "type": "Point",
        "coordinates": [
          85.393389065403,
          -73.60476550395319
        ]
      }
    },
    {
      "type": "Feature",
      "properties": {
        "norad_id": 49260,
        "name": "LANDSAT 9",
        "group": "resource",
        "lat": 65.29706971511561,
        "lon": -108.7798419145609,
        "alt_km": 695.3477105552165,
        "timestamp": "2025-12-10T18:56:59.719776+00:00",
        "meta_object_name": "LANDSAT 9",
        "meta_object_id": "2021-088A",
        "meta_epoch": "2025-12-10T11:50:22.208640",
        "meta_mean_motion": 14.57126771,
        "meta_eccentricity": 0.0001107,
        "meta_inclination": 98.2098,
        "meta_ra_of_asc_node": 52.6371,
        "meta_arg_of_pericenter": 94.7059,
        "meta_mean_anomaly": 265.4266,
        "meta_ephemeris_type": 0,
        "meta_classification_type": "U",
        "meta_norad_cat_id": 49260,
        "meta_element_set_no": 999,
        "meta_rev_at_epoch": 22352,
        "meta_bstar": 0.00017196,
        "meta_mean_motion_dot": 7.3e-06,
        "meta_mean_motion_ddot": 0,
        "tle_line1": "1 49260U 21088A   25344.49331260  .00000730  00000+0  17196-3 0  9992",
        "tle_line2": "2 49260  98.2098  52.6371 0001107  94.7059 265.4266 14.57126771223522"
      },
      "geometry": {
        "type": "Point",
        "coordinates": [
          -108.7798419145609,
          65.29706971511561
        ]
      }
    }
  ]
}